[{"OBJECT_NAME":"ONEWEB-0720","OBJECT_ID":"2023-029AR","EPOCH":"2025-07-28T11:04:44.084640","MEAN_MOTION":13.19728574,"ECCENTRICITY":0.0002187,"INCLINATION":87.923,"RA_OF_ASC_NODE":9.3442,"ARG_OF_PERICENTER":85.8374,"MEAN_ANOMALY":274.3009,"EPHEMERIS_TYPE":0,"CLASSIFICATION_TYPE":"U","NORAD_CAT_ID":55835,"ELEMENT_SET_NO":999,"REV_AT_EPOCH":11614,"BSTAR":0.00037581,"MEAN_MOTION_DOT":1.63e-6,"MEAN_MOTION_DDOT":0},{"OBJECT_NAME":"ONEWEB-0537","OBJECT_ID":"2023-043A","EPOCH":"2025-07-28T18:02:11.945760","MEAN_MOTION":13.16595428,"ECCENTRICITY":0.0001767,"INCLINATION":87.9058,"RA_OF_ASC_NODE":293.2304,"ARG_OF_PERICENTER":99.5145,"MEAN_ANOMALY":260.6186,"EPHEMERIS_TYPE":0,"CLASSIFICATION_TYPE":"U","NORAD_CAT_ID":56046,"ELEMENT_SET_NO":999,"REV_AT_EPOCH":11731,"BSTAR":5.1675e-5,"MEAN_MOTION_DOT":3.3e-7,"MEAN_MOTION_DDOT":0},{"OBJECT_NAME":"ONEWEB-0538","OBJECT_ID":"2023-043B","EPOCH":"2025-07-28T17:53:05.224704","MEAN_MOTION":13.16592936,"ECCENTRICITY":0.0001875,"INCLINATION":87.9049,"RA_OF_ASC_NODE":293.2476,"ARG_OF_PERICENTER":91.1935,"MEAN_ANOMALY":268.9411,"EPHEMERIS_TYPE":0,"CLASSIFICATION_TYPE":"U","NORAD_CAT_ID":56047,"ELEMENT_SET_NO":999,"REV_AT_EPOCH":11732,"BSTAR":3.7101e-5,"MEAN_MOTION_DOT":2.7e-7,"MEAN_MOTION_DDOT":0},{"OBJECT_NAME":"ONEWEB-0546","OBJECT_ID":"2023-043C","EPOCH":"2025-07-28T17:34:50.432160","MEAN_MOTION":13.16593196,"ECCENTRICITY":0.0001416,"INCLINATION":87.906,"RA_OF_ASC_NODE":293.2274,"ARG_OF_PERICENTER":112.7655,"MEAN_ANOMALY":247.3626,"EPHEMERIS_TYPE":0,"CLASSIFICATION_TYPE":"U","NORAD_CAT_ID":56048,"ELEMENT_SET_NO":999,"REV_AT_EPOCH":11731,"BSTAR":-0.00017025,"MEAN_MOTION_DOT":-5.2e-7,"MEAN_MOTION_DDOT":0},{"OBJECT_NAME":"ONEWEB-0547","OBJECT_ID":"2023-043D","EPOCH":"2025-07-28T19:10:08.147424","MEAN_MOTION":13.21824139,"ECCENTRICITY":0.0002002,"INCLINATION":87.9271,"RA_OF_ASC_NODE":308.4915,"ARG_OF_PERICENTER":93.0102,"MEAN_ANOMALY":267.1261,"EPHEMERIS_TYPE":0,"CLASSIFICATION_TYPE":"U","NORAD_CAT_ID":56049,"ELEMENT_SET_NO":999,"REV_AT_EPOCH":11641,"BSTAR":-0.00014857,"MEAN_MOTION_DOT":-4.8e-7,"MEAN_MOTION_DDOT":0},{"OBJECT_NAME":"ONEWEB-0548","OBJECT_ID":"2023-043E","EPOCH":"2025-07-28T14:32:26.869920","MEAN_MOTION":13.16592768,"ECCENTRICITY":0.0002393,"INCLINATION":87.9044,"RA_OF_ASC_NODE":293.2834,"ARG_OF_PERICENTER":107.6506,"MEAN_ANOMALY":252.4887,"EPHEMERIS_TYPE":0,"CLASSIFICATION_TYPE":"U","NORAD_CAT_ID":56050,"ELEMENT_SET_NO":999,"REV_AT_EPOCH":11638,"BSTAR":4.1966e-5,"MEAN_MOTION_DOT":2.9e-7,"MEAN_MOTION_DDOT":0},{"OBJECT_NAME":"ONEWEB-0549","OBJECT_ID":"2023-043F","EPOCH":"2025-07-28T18:57:38.084832","MEAN_MOTION":13.21823871,"ECCENTRICITY":0.0001998,"INCLINATION":87.9275,"RA_OF_ASC_NODE":308.5074,"ARG_OF_PERICENTER":90.7646,"MEAN_ANOMALY":269.3717,"EPHEMERIS_TYPE":0,"CLASSIFICATION_TYPE":"U","NORAD_CAT_ID":56051,"ELEMENT_SET_NO":999,"REV_AT_EPOCH":11641,"BSTAR":-9.4505e-5,"MEAN_MOTION_DOT":-2.6e-7,"MEAN_MOTION_DDOT":0},{"OBJECT_NAME":"ONEWEB-0550","OBJECT_ID":"2023-043G","EPOCH":"2025-07-28T18:39:30.324384","MEAN_MOTION":13.21825568,"ECCENTRICITY":0.0002025,"INCLINATION":87.9275,"RA_OF_ASC_NODE":308.5035,"ARG_OF_PERICENTER":104.202,"MEAN_ANOMALY":255.9339,"EPHEMERIS_TYPE":0,"CLASSIFICATION_TYPE":"U","NORAD_CAT_ID":56052,"ELEMENT_SET_NO":999,"REV_AT_EPOCH":11641,"BSTAR":6.7442e-5,"MEAN_MOTION_DOT":4.1e-7,"MEAN_MOTION_DDOT":0},{"OBJECT_NAME":"ONEWEB-0551","OBJECT_ID":"2023-043H","EPOCH":"2025-07-29T05:10:46.225056","MEAN_MOTION":13.15547897,"ECCENTRICITY":0.000203,"INCLINATION":87.9083,"RA_OF_ASC_NODE":323.6445,"ARG_OF_PERICENTER":92.8561,"MEAN_ANOMALY":267.2802,"EPHEMERIS_TYPE":0,"CLASSIFICATION_TYPE":"U","NORAD_CAT_ID":56053,"ELEMENT_SET_NO":999,"REV_AT_EPOCH":11484,"BSTAR":0.00038858,"MEAN_MOTION_DOT":1.59e-6,"MEAN_MOTION_DDOT":0},{"OBJECT_NAME":"ONEWEB-0552","OBJECT_ID":"2023-043J","EPOCH":"2025-07-28T07:36:24.238944","MEAN_MOTION":13.21826485,"ECCENTRICITY":0.0002252,"INCLINATION":87.9275,"RA_OF_ASC_NODE":308.6041,"ARG_OF_PERICENTER":95.1861,"MEAN_ANOMALY":264.953,"EPHEMERIS_TYPE":0,"CLASSIFICATION_TYPE":"U","NORAD_CAT_ID":56054,"ELEMENT_SET_NO":999,"REV_AT_EPOCH":11544,"BSTAR":0.00011889,"MEAN_MOTION_DOT":6.2e-7,"MEAN_MOTION_DDOT":0},{"OBJECT_NAME":"ONEWEB-0553","OBJECT_ID":"2023-043K","EPOCH":"2025-07-28T06:47:21.104160","MEAN_MOTION":13.16595251,"ECCENTRICITY":0.000177,"INCLINATION":87.905,"RA_OF_ASC_NODE":293.3379,"ARG_OF_PERICENTER":109.3504,"MEAN_ANOMALY":250.7818,"EPHEMERIS_TYPE":0,"CLASSIFICATION_TYPE":"U","NORAD_CAT_ID":56055,"ELEMENT_SET_NO":999,"REV_AT_EPOCH":11635,"BSTAR":0.0001292,"MEAN_MOTION_DOT":6.2e-7,"MEAN_MOTION_DDOT":0},{"OBJECT_NAME":"ONEWEB-0554","OBJECT_ID":"2023-043L","EPOCH":"2025-07-28T06:29:07.416672","MEAN_MOTION":13.16594933,"ECCENTRICITY":0.0002202,"INCLINATION":87.9046,"RA_OF_ASC_NODE":293.3674,"ARG_OF_PERICENTER":105.6144,"MEAN_ANOMALY":254.523,"EPHEMERIS_TYPE":0,"CLASSIFICATION_TYPE":"U","NORAD_CAT_ID":56056,"ELEMENT_SET_NO":999,"REV_AT_EPOCH":11633,"BSTAR":-0.00012361,"MEAN_MOTION_DOT":-3.4e-7,"MEAN_MOTION_DDOT":0},{"OBJECT_NAME":"ONEWEB-0555","OBJECT_ID":"2023-043M","EPOCH":"2025-07-28T14:41:34.659744","MEAN_MOTION":13.1659348,"ECCENTRICITY":0.000164,"INCLINATION":87.9052,"RA_OF_ASC_NODE":293.2668,"ARG_OF_PERICENTER":113.6898,"MEAN_ANOMALY":246.4405,"EPHEMERIS_TYPE":0,"CLASSIFICATION_TYPE":"U","NORAD_CAT_ID":56057,"ELEMENT_SET_NO":999,"REV_AT_EPOCH":11638,"BSTAR":0.00015275,"MEAN_MOTION_DOT":7.1e-7,"MEAN_MOTION_DDOT":0},{"OBJECT_NAME":"ONEWEB-0557","OBJECT_ID":"2023-043N","EPOCH":"2025-07-28T18:40:57.713664","MEAN_MOTION":13.16593832,"ECCENTRICITY":0.0002536,"INCLINATION":87.9046,"RA_OF_ASC_NODE":293.2545,"ARG_OF_PERICENTER":130.4409,"MEAN_ANOMALY":229.6944,"EPHEMERIS_TYPE":0,"CLASSIFICATION_TYPE":"U","NORAD_CAT_ID":56058,"ELEMENT_SET_NO":999,"REV_AT_EPOCH":11731,"BSTAR":-3.5818e-5,"MEAN_MOTION_DOT":-1.0e-8,"MEAN_MOTION_DDOT":0},{"OBJECT_NAME":"ONEWEB-0558","OBJECT_ID":"2023-043P","EPOCH":"2025-07-28T07:27:19.487808","MEAN_MOTION":13.21824734,"ECCENTRICITY":0.0002059,"INCLINATION":87.9274,"RA_OF_ASC_NODE":308.6014,"ARG_OF_PERICENTER":86.2718,"MEAN_ANOMALY":273.8651,"EPHEMERIS_TYPE":0,"CLASSIFICATION_TYPE":"U","NORAD_CAT_ID":56059,"ELEMENT_SET_NO":999,"REV_AT_EPOCH":11545,"BSTAR":0.00015511,"MEAN_MOTION_DOT":7.7e-7,"MEAN_MOTION_DDOT":0},{"OBJECT_NAME":"ONEWEB-0559","OBJECT_ID":"2023-043Q","EPOCH":"2025-07-29T04:59:27.254976","MEAN_MOTION":13.21826806,"ECCENTRICITY":0.0002315,"INCLINATION":87.9273,"RA_OF_ASC_NODE":308.4146,"ARG_OF_PERICENTER":93.3411,"MEAN_ANOMALY":266.7988,"EPHEMERIS_TYPE":0,"CLASSIFICATION_TYPE":"U","NORAD_CAT_ID":56060,"ELEMENT_SET_NO":999,"REV_AT_EPOCH":11649,"BSTAR":0.00021226,"MEAN_MOTION_DOT":1.01e-6,"MEAN_MOTION_DDOT":0},{"OBJECT_NAME":"ONEWEB-0566","OBJECT_ID":"2023-043R","EPOCH":"2025-07-29T04:50:22.274016","MEAN_MOTION":13.21827285,"ECCENTRICITY":0.0002153,"INCLINATION":87.9272,"RA_OF_ASC_NODE":308.4139,"ARG_OF_PERICENTER":91.4,"MEAN_ANOMALY":268.7381,"EPHEMERIS_TYPE":0,"CLASSIFICATION_TYPE":"U","NORAD_CAT_ID":56061,"ELEMENT_SET_NO":999,"REV_AT_EPOCH":11647,"BSTAR":0.00016286,"MEAN_MOTION_DOT":8.0e-7,"MEAN_MOTION_DDOT":0}]
