ONEWEB-0720             
1 55835U 23029AR  25209.46162135  .00000163  00000+0  37581-3 0  9994
2 55835  87.9230   9.3442 0002187  85.8374 274.3009 13.19728574116147
ONEWEB-0537             
1 56046U 23043A   25209.75152715  .00000033  00000+0  51675-4 0  9997
2 56046  87.9058 293.2304 0001767  99.5145 260.6186 13.16595428117313
ONEWEB-0538             
1 56047U 23043B   25209.74519936  .00000027  00000+0  37101-4 0  9990
2 56047  87.9049 293.2476 0001875  91.1935 268.9411 13.16592936117323
ONEWEB-0546             
1 56048U 23043C   25209.73252815 -.00000052  00000+0 -17025-3 0  9992
2 56048  87.9060 293.2274 0001416 112.7655 247.3626 13.16593196117310
ONEWEB-0547             
1 56049U 23043D   25209.79870541 -.00000048  00000+0 -14857-3 0  9996
2 56049  87.9271 308.4915 0002002  93.0102 267.1261 13.21824139116411
ONEWEB-0548             
1 56050U 23043E   25209.60586655  .00000029  00000+0  41966-4 0  9997
2 56050  87.9044 293.2834 0002393 107.6506 252.4887 13.16592768116386
ONEWEB-0549             
1 56051U 23043F   25209.79002413 -.00000026  00000+0 -94505-4 0  9999
2 56051  87.9275 308.5074 0001998  90.7646 269.3717 13.21823871116417
ONEWEB-0550             
1 56052U 23043G   25209.77743431  .00000041  00000+0  67442-4 0  9995
2 56052  87.9275 308.5035 0002025 104.2020 255.9339 13.21825568116410
ONEWEB-0551             
1 56053U 23043H   25210.21581279  .00000159  00000+0  38858-3 0  9995
2 56053  87.9083 323.6445 0002030  92.8561 267.2802 13.15547897114844
ONEWEB-0552             
1 56054U 23043J   25209.31694721  .00000062  00000+0  11889-3 0  9990
2 56054  87.9275 308.6041 0002252  95.1861 264.9530 13.21826485115447
ONEWEB-0553             
1 56055U 23043K   25209.28288315  .00000062  00000+0  12920-3 0  9992
2 56055  87.9050 293.3379 0001770 109.3504 250.7818 13.16595251116350
ONEWEB-0554             
1 56056U 23043L   25209.27022473 -.00000034  00000+0 -12361-3 0  9993
2 56056  87.9046 293.3674 0002202 105.6144 254.5230 13.16594933116338
ONEWEB-0555             
1 56057U 23043M   25209.61220671  .00000071  00000+0  15275-3 0  9998
2 56057  87.9052 293.2668 0001640 113.6898 246.4405 13.16593480116383
ONEWEB-0557             
1 56058U 23043N   25209.77844576 -.00000001  00000+0 -35818-4 0  9993
2 56058  87.9046 293.2545 0002536 130.4409 229.6944 13.16593832117317
ONEWEB-0558             
1 56059U 23043P   25209.31064222  .00000077  00000+0  15511-3 0  9994
2 56059  87.9274 308.6014 0002059  86.2718 273.8651 13.21824734115457
ONEWEB-0559             
1 56060U 23043Q   25210.20795434  .00000101  00000+0  21226-3 0  9990
2 56060  87.9273 308.4146 0002315  93.3411 266.7988 13.21826806116497
ONEWEB-0566             
1 56061U 23043R   25210.20164669  .00000080  00000+0  16286-3 0  9997
2 56061  87.9272 308.4139 0002153  91.4000 268.7381 13.21827285116471
